NORAD_CAT_ID,OBJECT_NAME,OBJECT_TYPE,EPOCH,MEAN_MOTION,ECCENTRICITY,INCLINATION,RA_OF_ASC_NODE,ARG_OF_PERICENTER,MEAN_ANOMALY,BSTAR,MEAN_MOTION_DOT,MEAN_MOTION_DDOT,TLE_LINE0,TLE_LINE1,TLE_LINE2,SEMIMAJOR_AXIS,PERIOD,APOGEE,PERIGEE,DECAYED
54767.0,STARLINK-5472,PAYLOAD,2023-04-26 14:23:10,15.08836641,0.0002049,53.2177,69.1347,84.0088,276.1138,-0.00023249,-3.986e-05,0.0,0 STARLINK-5472,1 54767U 22175K   23116.59942494 -.00003986  00000-0 -23249-3 0  9996,2 54767  53.2177  69.1347 0002049  84.0088 276.1138 15.08836641 21697,6917.891,95.438,541.173,538.338,0.0
54767.0,STARLINK-5472,PAYLOAD,2023-04-27 06:17:00,15.08840719,0.0001192,53.2191,66.1587,104.867,255.2454,8.3782e-06,-1.54e-06,0.0,0 STARLINK-5472,1 54767U 22175K   23117.26181361 -.00000154  00000-0  83782-5 0  9992,2 54767  53.2191  66.1587 0001192 104.8670 255.2454 15.08840719 21793,6917.878,95.438,540.568,538.919,0.0
54767.0,STARLINK-5472,PAYLOAD,2023-04-28 06:07:46,15.08848039,0.0001208,53.2191,61.6979,107.0963,253.0161,0.00038534,5.851e-05,0.0,0 STARLINK-5472,1 54767U 22175K   23118.25540168  .00005851  00000-0  38534-3 0  9997,2 54767  53.2191  61.6979 0001208 107.0963 253.0161 15.08848039 19786,6917.856,95.437,540.556,538.885,0.0
54767.0,STARLINK-5472,PAYLOAD,2023-04-29 04:23:11,15.08846055,0.0001142,53.2195,57.5364,99.76,260.3521,-1.6836e-05,-5.56e-06,0.0,0 STARLINK-5472,1 54767U 22175K   23119.18277592 -.00000556  00000-0 -16836-4 0  9999,2 54767  53.2195  57.5364 0001142  99.7600 260.3521 15.08846055 19927,6917.862,95.437,540.517,538.937,0.0
54767.0,STARLINK-5472,PAYLOAD,2023-04-29 05:58:34,15.0884784,0.0001137,53.2194,57.2376,102.4519,257.6601,-1.2265e-05,-4.83e-06,0.0,0 STARLINK-5472,1 54767U 22175K   23119.24901433 -.00000483  00000-0 -12265-4 0  9995,2 54767  53.2194  57.2376 0001137 102.4519 257.6601 15.08847840 22094,6917.856,95.437,540.508,538.935,0.0
54767.0,STARLINK-5472,PAYLOAD,2023-04-30 05:49:21,15.08853237,0.0001212,53.2196,52.7769,91.207,268.9061,-7.0301e-05,-1.407e-05,0.0,0 STARLINK-5472,1 54767U 22175K   23120.24260764 -.00001407  00000-0 -70301-4 0  9994,2 54767  53.2196  52.7769 0001212  91.2070 268.9061 15.08853237 20082,6917.84,95.437,540.543,538.866,0.0
54767.0,STARLINK-5472,PAYLOAD,2023-04-30 20:07:50,15.08832428,0.000125,53.2207,50.1033,89.9036,270.2099,2.9275e-06,-2.41e-06,0.0,0 STARLINK-5472,1 54767U 22175K   23120.83878116 -.00000241  00000-0  29275-5 0  9994,2 54767  53.2207  50.1033 0001250  89.9036 270.2099 15.08832428 20175,6917.904,95.438,540.633,538.904,0.0
54767.0,STARLINK-5472,PAYLOAD,2023-05-01 05:40:09,15.08839079,0.0001282,53.2192,48.3166,96.7288,263.385,5.5598e-05,5.97e-06,0.0,0 STARLINK-5472,1 54767U 22175K   23121.23621587  .00000597  00000-0  55598-4 0  9996,2 54767  53.2192  48.3166 0001282  96.7288 263.3850 15.08839079 20238,6917.883,95.438,540.635,538.861,0.0
54767.0,STARLINK-5472,PAYLOAD,2023-05-02 03:55:32,15.08844401,0.0001219,53.2193,44.1533,90.4315,269.6817,7.2746e-05,8.7e-06,0.0,0 STARLINK-5472,1 54767U 22175K   23122.16357476  .00000870  00000-0  72746-4 0  9990,2 54767  53.2193  44.1533 0001219  90.4315 269.6817 15.08844401 22535,6917.867,95.437,540.575,538.889,0.0
54767.0,STARLINK-5472,PAYLOAD,2023-05-03 03:46:19,15.08847418,0.0001115,53.2188,39.6943,88.1745,271.9375,0.00012532,1.708e-05,0.0,0 STARLINK-5472,1 54767U 22175K   23123.15717170  .00001708  00000-0  12532-3 0  9998,2 54767  53.2188  39.6943 0001115  88.1745 271.9375 15.08847418 20522,6917.858,95.437,540.494,538.951,0.0
54767.0,STARLINK-5472,PAYLOAD,2023-05-03 18:04:48,15.08840178,0.0001203,53.218,37.0188,91.1933,268.9197,7.6793e-05,9.35e-06,0.0,0 STARLINK-5472,1 54767U 22175K   23123.75333668  .00000935  00000-0  76793-4 0  9991,2 54767  53.2180  37.0188 0001203  91.1933 268.9197 15.08840178 20612,6917.88,95.438,540.577,538.913,0.0
54767.0,STARLINK-5472,PAYLOAD,2023-05-04 03:37:06,15.08848887,0.0001267,53.219,35.234,83.0264,277.0872,9.0631e-05,1.155e-05,0.0,0 STARLINK-5472,1 54767U 22175K   23124.15077029  .00001155  00000-0  90631-4 0  9994,2 54767  53.2190  35.2340 0001267  83.0264 277.0872 15.08848887 20672,6917.853,95.437,540.595,538.842,0.0
54767.0,STARLINK-5472,PAYLOAD,2023-05-04 11:34:02,15.08847003,0.0001223,53.2197,33.7483,80.9178,279.1953,2.1801e-05,5.9e-07,0.0,0 STARLINK-5472,1 54767U 22175K   23124.48197185  .00000059  00000-0  21801-4 0  9991,2 54767  53.2197  33.7483 0001223  80.9178 279.1953 15.08847003 22889,6917.859,95.437,540.57,538.878,0.0
54767.0,STARLINK-5472,PAYLOAD,2023-05-04 21:06:21,15.08844058,0.0001303,53.2188,31.9623,93.7748,266.3393,-2.5283e-07,-2.92e-06,0.0,0 STARLINK-5472,1 54767U 22175K   23124.87941482 -.00000292  00000-0 -25283-6 0  9992,2 54767  53.2188  31.9623 0001303  93.7748 266.3393 15.08844058 22949,6917.868,95.437,540.634,538.832,0.0
54767.0,STARLINK-5472,PAYLOAD,2023-05-05 00:17:07,15.08845302,0.0001224,53.2195,31.3683,90.9781,269.1351,8.8898e-06,-1.46e-06,0.0,0 STARLINK-5472,1 54767U 22175K   23125.01189366 -.00000146  00000-0  88898-5 0  9991,2 54767  53.2195  31.3683 0001224  90.9781 269.1351 15.08845302 20806,6917.864,95.437,540.576,538.882,0.0
54767.0,STARLINK-5472,PAYLOAD,2023-05-05 20:57:09,15.08836374,0.0001218,53.2183,27.5021,95.016,265.0972,-2.3245e-05,-6.58e-06,0.0,0 STARLINK-5472,1 54767U 22175K   23125.87302133 -.00000658  00000-0 -23245-4 0  9997,2 54767  53.2183  27.5021 0001218  95.0160 265.0972 15.08836374 23093,6917.891,95.438,540.599,538.914,0.0
54767.0,STARLINK-5472,PAYLOAD,2023-05-06 00:07:55,15.08840666,0.0001065,53.2182,26.9071,85.0014,275.11,2.0751e-06,-2.55e-06,0.0,0 STARLINK-5472,1 54767U 22175K   23126.00549826 -.00000255  00000-0  20751-5 0  9997,2 54767  53.2182  26.9071 0001065  85.0014 275.1100 15.08840666 20953,6917.878,95.438,540.48,539.007,0.0
54767.0,STARLINK-5472,PAYLOAD,2023-05-07 03:09:27,15.08857446,0.0001243,53.2179,21.8532,81.682,278.4313,0.00024068,3.546e-05,0.0,0 STARLINK-5472,1 54767U 22175K   23127.13156411  .00003546  00000-0  24068-3 0  9994,2 54767  53.2179  21.8532 0001243  81.6820 278.4313 15.08857446 21126,6917.827,95.436,540.552,538.832,0.0
54767.0,STARLINK-5472,PAYLOAD,2023-05-07 20:38:43,15.08829086,0.0001502,53.217,18.5775,124.2705,235.8429,-8.1006e-05,-1.577e-05,0.0,0 STARLINK-5472,1 54767U 22175K   23127.86022597 -.00001577  00000-0 -81006-4 0  9991,2 54767  53.2170  18.5775 0001502 124.2705 235.8429 15.08829086 21239,6917.914,95.438,540.818,538.74,0.0
54767.0,STARLINK-5472,PAYLOAD,2023-05-08 09:21:48,15.08837782,0.0001123,53.2171,16.2054,98.2255,261.8865,8.6294e-05,1.086e-05,0.0,0 STARLINK-5472,1 54767U 22175K   23128.39014574  .00001086  00000-0  86294-4 0  9993,2 54767  53.2171  16.2054 0001123  98.2255 261.8865 15.08837782 21318,6917.887,95.438,540.529,538.975,0.0
54767.0,STARLINK-5472,PAYLOAD,2023-05-08 22:04:53,15.08850863,0.0001031,53.2172,13.8259,102.9506,257.1601,0.00033014,4.972e-05,0.0,0 STARLINK-5472,1 54767U 22175K   23128.92006115  .00004972  00000-0  33014-3 0  9992,2 54767  53.2172  13.8259 0001031 102.9506 257.1601 15.08850863 23558,6917.847,95.437,540.425,538.999,0.0
54767.0,STARLINK-5472,PAYLOAD,2023-05-08 23:40:16,15.08854602,0.0001018,53.2171,13.5287,103.8782,256.2324,0.00061873,9.577e-05,0.0,0 STARLINK-5472,1 54767U 22175K   23128.98630187  .00009577  00000-0  61873-3 0  9990,2 54767  53.2171  13.5287 0001018 103.8782 256.2324 15.08854602 21405,6917.836,95.437,540.405,538.997,0.0
54767.0,STARLINK-5472,PAYLOAD,2023-05-10 01:06:26,15.08845332,0.000126,53.2173,8.7707,68.5372,291.5754,0.00023446,3.446e-05,0.0,0 STARLINK-5472,1 54767U 22175K   23130.04614505  .00003446  00000-0  23446-3 0  9999,2 54767  53.2173   8.7707 0001260  68.5372 291.5754 15.08845332 23727,6917.864,95.437,540.601,538.857,0.0
54767.0,STARLINK-5472,PAYLOAD,2023-05-10 21:46:27,15.0885352,9.02e-05,53.2163,4.9065,93.4323,266.6772,0.0002535,3.75e-05,0.0,0 STARLINK-5472,1 54767U 22175K   23130.90725701  .00003750  00000-0  25350-3 0  9999,2 54767  53.2163   4.9065 0000902  93.4323 266.6772 15.08853520 23851,6917.839,95.437,540.328,539.08,0.0
54767.0,STARLINK-5472,PAYLOAD,2023-05-10 23:21:49,15.08860311,0.0001083,53.217,4.6092,86.0501,274.0615,0.00033201,5.003e-05,0.0,0 STARLINK-5472,1 54767U 22175K   23130.97349449  .00005003  00000-0  33201-3 0  9994,2 54767  53.2170   4.6092 0001083  86.0501 274.0615 15.08860311 23869,6917.818,95.436,540.433,538.934,0.0
54767.0,STARLINK-5472,PAYLOAD,2023-05-11 21:37:14,15.08837741,0.0001355,53.2162,0.4462,71.75,288.3639,4.1107e-05,3.66e-06,0.0,0 STARLINK-5472,1 54767U 22175K   23131.90086609  .00000366  00000-0  41107-4 0  9996,2 54767  53.2162   0.4462 0001355  71.7500 288.3639 15.08837741 21848,6917.887,95.438,540.69,538.815,0.0
54767.0,STARLINK-5472,PAYLOAD,2023-05-12 18:17:15,15.08844573,0.0001021,53.2172,356.5777,68.8002,291.3099,0.00019782,2.862e-05,0.0,0 STARLINK-5472,1 54767U 22175K   23132.76198632  .00002862  00000-0  19782-3 0  9997,2 54767  53.2172 356.5777 0001021  68.8002 291.3099 15.08844573 24137,6917.866,95.437,540.438,539.025,0.0
54767.0,STARLINK-5472,PAYLOAD,2023-05-13 00:38:47,15.08857049,0.0001163,53.2187,355.3886,76.0535,284.0586,0.0006551,0.00010158,0.0,0 STARLINK-5472,1 54767U 22175K   23133.02694379  .00010158  00000-0  65510-3 0  9993,2 54767  53.2187 355.3886 0001163  76.0535 284.0586 15.08857049 22017,6917.828,95.436,540.498,538.889,0.0
54767.0,STARLINK-5472,PAYLOAD,2023-05-13 21:18:48,15.0885094,0.0001073,53.2176,351.5242,75.6206,284.4906,0.00040974,6.241e-05,0.0,0 STARLINK-5472,1 54767U 22175K   23133.88806490  .00006241  00000-0  40974-3 0  9991,2 54767  53.2176 351.5242 0001073  75.6206 284.4906 15.08850940 24306,6917.847,95.437,540.454,538.97,0.0
54767.0,STARLINK-5472,PAYLOAD,2023-05-14 02:04:58,15.0885682,0.000107,53.2181,350.6317,77.8532,282.258,0.00066231,0.00010273,0.0,0 STARLINK-5472,1 54767U 22175K   23134.08678295  .00010273  00000-0  66231-3 0  9998,2 54767  53.2181 350.6317 0001070  77.8532 282.2580 15.08856820 22178,6917.829,95.436,540.434,538.954,0.0
